$$SOE
2459580.500000000, A.D. 2022-Jan-01 00:00:00.0000, -3.308168644107609E+08, -2.153355144872428E+08, 2.144767811609703E+07,
2459587.500000000, A.D. 2022-Jan-08 00:00:00.0000, -3.260561625254297E+08, -2.248869381277125E+08, 2.172987211907671E+07,
2459594.500000000, A.D. 2022-Jan-15 00:00:00.0000, -3.210419278632891E+08, -2.342634792933667E+08, 2.199516805566660E+07,
2459601.500000000, A.D. 2022-Jan-22 00:00:00.0000, -3.157805852142797E+08, -2.434596923553442E+08, 2.224353249783768E+07,
2459608.500000000, A.D. 2022-Jan-29 00:00:00.0000, -3.102785845600315E+08, -2.524703499972934E+08, 2.247494332437104E+07,
2459615.500000000, A.D. 2022-Feb-05 00:00:00.0000, -3.045423981258103E+08, -2.612904373854545E+08, 2.268938938717371E+07,
2459622.500000000, A.D. 2022-Feb-12 00:00:00.0000, -2.985785157360988E+08, -2.699151475275596E+08, 2.288686991438024E+07,
2459629.500000000, A.D. 2022-Feb-19 00:00:00.0000, -2.923934397725282E+08, -2.783398754655945E+08, 2.306739396527442E+07,
2459636.500000000, A.D. 2022-Feb-26 00:00:00.0000, -2.859936810186232E+08, -2.865602120364219E+08, 2.323097999777886E+07,
2459643.500000000, A.D. 2022-Mar-05 00:00:00.0000, -2.793857552057598E+08, -2.945719378272694E+08, 2.337765548272873E+07,
2459650.500000000, A.D. 2022-Mar-12 00:00:00.0000, -2.725761800143791E+08, -3.023710174012668E+08, 2.350745653845343E+07,
2459657.500000000, A.D. 2022-Mar-19 00:00:00.0000, -2.655714724375687E+08, -3.099535937722139E+08, 2.362042758082959E+07,
2459664.500000000, A.D. 2022-Mar-26 00:00:00.0000, -2.583781464633265E+08, -3.173159831383349E+08, 2.371662098561445E+07,
2459671.500000000, A.D. 2022-Apr-02 00:00:00.0000, -2.510027109853145E+08, -3.244546699323648E+08, 2.379609675134367E+07,
2459678.500000000, A.D. 2022-Apr-09 00:00:00.0000, -2.434516676468718E+08, -3.313663021849110E+08, 2.385892213710655E+07,
2459685.500000000, A.D. 2022-Apr-16 00:00:00.0000, -2.357315082393252E+08, -3.380476865506704E+08, 2.390517129488342E+07,
2459692.500000000, A.D. 2022-Apr-23 00:00:00.0000, -2.278487129046878E+08, -3.444957819178089E+08, 2.393492510074605E+07,
2459699.500000000, A.D. 2022-Apr-30 00:00:00.0000, -2.198097509969572E+08, -3.507076938496555E+08, 2.394827117248610E+07,
2459706.500000000, A.D. 2022-May-07 00:00:00.0000, -2.116210815259551E+08, -3.566806718354476E+08, 2.394530363117145E+07,
2459713.500000000, A.D. 2022-May-14 00:00:00.0000, -2.032891517826462E+08, -3.624121063128079E+08, 2.392612272732700E+07,
2459720.500000000, A.D. 2022-May-21 00:00:00.0000, -1.948203961644809E+08, -3.678995247007053E+08, 2.389083457966998E+07,
2459727.500000000, A.D. 2022-May-28 00:00:00.0000, -1.862212356655077E+08, -3.731405873975930E+08, 2.383955099125421E+07,
2459734.500000000, A.D. 2022-Jun-04 00:00:00.0000, -1.774980777392698E+08, -3.781330840538392E+08, 2.377238929115891E+07,
2459741.500000000, A.D. 2022-Jun-11 00:00:00.0000, -1.686573163751234E+08, -3.828749301141738E+08, 2.368947218783365E+07,
2459748.500000000, A.D. 2022-Jun-18 00:00:00.0000, -1.597053323361249E+08, -3.873641636165681E+08, 2.359092763117361E+07,
2459755.500000000, A.D. 2022-Jun-25 00:00:00.0000, -1.506484935180202E+08, -3.915989422811327E+08, 2.347688867779756E+07,
2459762.500000000, A.D. 2022-Jul-02 00:00:00.0000, -1.414931552859346E+08, -3.955775409547448E+08, 2.334749334187631E+07,
2459769.500000000, A.D. 2022-Jul-09 00:00:00.0000, -1.322456603900947E+08, -3.992983492336734E+08, 2.320288441016690E+07,
2459776.500000000, A.D. 2022-Jul-16 00:00:00.0000, -1.229123385079231E+08, -4.027598681797667E+08, 2.304320931470852E+07,
2459783.500000000, A.D. 2022-Jul-23 00:00:00.0000, -1.134995076030047E+08, -4.059607060496659E+08, 2.286862027092028E+07,
2459790.500000000, A.D. 2022-Jul-30 00:00:00.0000, -1.040134770082553E+08, -4.088995763881464E+08, 2.267927439890154E+07,
2459797.500000000, A.D. 2022-Aug-06 00:00:00.0000, -9.446054862646984E+07, -4.115752978366132E+08, 2.247533355062595E+07,
2459804.500000000, A.D. 2022-Aug-13 00:00:00.0000, -8.484701706474067E+07, -4.139867929019455E+08, 2.225696414372259E+07,
2459811.500000000, A.D. 2022-Aug-20 00:00:00.0000, -7.517917026579292E+07, -4.161330861876531E+08, 2.202433710470077E+07,
2459818.500000000, A.D. 2022-Aug-27 00:00:00.0000, -6.546329056179326E+07, -4.180133028119640E+08, 2.177762785592100E+07,
2459825.500000000, A.D. 2022-Sep-03 00:00:00.0000, -5.570565589638960E+07, -4.196266671213244E+08, 2.151701631433371E+07,
2459832.500000000, A.D. 2022-Sep-10 00:00:00.0000, -4.591254111833428E+07, -4.209725016735955E+08, 2.124268689535707E+07,
2459839.500000000, A.D. 2022-Sep-17 00:00:00.0000, -3.609021931064928E+07, -4.220502264917962E+08, 2.095482851873693E+07,
2459846.500000000, A.D. 2022-Sep-24 00:00:00.0000, -2.624496308877715E+07, -4.228593586393800E+08, 2.065363460648981E+07,
2459853.500000000, A.D. 2022-Oct-01 00:00:00.0000, -1.638304562233089E+07, -4.233995121398073E+08, 2.033930304893535E+07,
2459860.500000000, A.D. 2022-Oct-08 00:00:00.0000, -6.510740968148811E+06, -4.236703977186542E+08, 2.001203614388800E+07,
2459867.500000000, A.D. 2022-Oct-15 00:00:00.0000, 3.365675358345275E+06, -4.236718211688993E+08, 1.967204069209895E+07,
2459874.500000000, A.D. 2022-Oct-22 00:00:00.0000, 1.323992339712163E+07, -4.234036820221201E+08, 1.931952831084177E+07,
2459881.500000000, A.D. 2022-Oct-29 00:00:00.0000, 2.310571584700106E+07, -4.228659751185152E+08, 1.895471552391529E+07,
2459888.500000000, A.D. 2022-Nov-05 00:00:00.0000, 3.295675736422867E+07, -4.220587923364494E+08, 1.857782365916196E+07,
2459895.500000000, A.D. 2022-Nov-12 00:00:00.0000, 4.278674409668574E+07, -4.209823232168456E+08, 1.818907883716297E+07,
2459902.500000000, A.D. 2022-Nov-19 00:00:00.0000, 5.258936273919025E+07, -4.196368554384945E+08, 1.778871203900322E+07,
2459909.500000000, A.D. 2022-Nov-26 00:00:00.0000, 6.235828937646475E+07, -4.180227755430927E+08, 1.737695919644207E+07,
2459916.500000000, A.D. 2022-Dec-03 00:00:00.0000, 7.208718828362031E+07, -4.161405699219651E+08, 1.695406128807545E+07,
2459923.500000000, A.D. 2022-Dec-10 00:00:00.0000, 8.176971073379156E+07, -4.139908260444612E+08, 1.652026443834671E+07,
2459930.500000000, A.D. 2022-Dec-17 00:00:00.0000, 9.139949384356748E+07, -4.115742339507040E+08, 1.607582001441315E+07,
2459937.500000000, A.D. 2022-Dec-24 00:00:00.0000, 1.009701595739988E+08, -4.088915880735533E+08, 1.562098470491657E+07,
2459944.500000000, A.D. 2022-Dec-31 00:00:00.0000, 1.104753142544918E+08, -4.059437892845170E+08, 1.515602055653605E+07,
2459951.500000000, A.D. 2023-Jan-07 00:00:00.0000, 1.199085487612855E+08, -4.027318462062842E+08, 1.468119503599393E+07,
2459958.500000000, A.D. 2023-Jan-14 00:00:00.0000, 1.292634373906338E+08, -3.992568753003660E+08, 1.419678133885942E+07,
2459965.500000000, A.D. 2023-Jan-21 00:00:00.0000, 1.385335347882286E+08, -3.955201029054308E+08, 1.370305874501942E+07,
2459972.500000000, A.D. 2023-Jan-28 00:00:00.0000, 1.477123746103620E+08, -3.915228694237583E+08, 1.320031266824144E+07,
2459979.500000000, A.D. 2023-Feb-04 00:00:00.0000, 1.567934697167668E+08, -3.872666326309474E+08, 1.268883466636527E+07,
2459986.500000000, A.D. 2023-Feb-11 00:00:00.0000, 1.657703121086275E+08, -3.827529703050323E+08, 1.216892256093830E+07,
2459993.500000000, A.D. 2023-Feb-18 00:00:00.0000, 1.746363725579131E+08, -3.779835830000066E+08, 1.164088060469785E+07,
2460000.500000000, A.D. 2023-Feb-25 00:00:00.0000, 1.833851002010715E+08, -3.729602971272518E+08, 1.110501965943274E+07,
2460007.500000000, A.D. 2023-Mar-04 00:00:00.0000, 1.920099222100860E+08, -3.676850683277425E+08, 1.056165737623230E+07,
2460014.500000000, A.D. 2023-Mar-11 00:00:00.0000, 2.005042435807959E+08, -3.621599851357464E+08, 1.001111837530302E+07,
2460021.500000000, A.D. 2023-Mar-18 00:00:00.0000, 2.088614470978528E+08, -3.563872729840261E+08, 9.453734416665569E+06,
2460028.500000000, A.D. 2023-Mar-25 00:00:00.0000, 2.170748936936809E+08, -3.503692985984063E+08, 8.889844538984939E+06,
2460035.500000000, A.D. 2023-Apr-01 00:00:00.0000, 2.251379236413939E+08, -3.441085743902399E+08, 8.319795159725517E+06,
2460042.500000000, A.D. 2023-Apr-08 00:00:00.0000, 2.330438579817459E+08, -3.376077616246048E+08, 7.743940293210715E+06,
2460049.500000000, A.D. 2023-Apr-15 00:00:00.0000, 2.407859978617960E+08, -3.308696734717288E+08, 7.162642010240540E+06,
2460056.500000000, A.D. 2023-Apr-22 00:00:00.0000, 2.483576236097995E+08, -3.238972809919528E+08, 6.576270723177254E+06,
2460063.500000000, A.D. 2023-Apr-29 00:00:00.0000, 2.557519962994872E+08, -3.166937197994407E+08, 5.985205228997216E+06,
2460070.500000000, A.D. 2023-May-06 00:00:00.0000, 2.629623600633413E+08, -3.092622956228318E+08, 5.389832816699922E+06,
2460077.500000000, A.D. 2023-May-13 00:00:00.0000, 2.699819441983420E+08, -3.016064896551619E+08, 4.790549454876199E+06,
2460084.500000000, A.D. 2023-May-20 00:00:00.0000, 2.768039653194086E+08, -2.937299641815938E+08, 4.187759996842161E+06,
2460091.500000000, A.D. 2023-May-27 00:00:00.0000, 2.834216297762966E+08, -2.856365685107450E+08, 3.581878382049978E+06,
2460098.500000000, A.D. 2023-Jun-03 00:00:00.0000, 2.898281364148876E+08, -2.773303451789487E+08, 2.973327829345658E+06,
2460105.500000000, A.D. 2023-Jun-10 00:00:00.0000, 2.960166797306852E+08, -2.688155364350855E+08, 2.362541017306522E+06,
2460112.500000000, A.D. 2023-Jun-17 00:00:00.0000, 3.019804535282933E+08, -2.600965910575460E+08, 1.749960236883253E+06,
2460119.500000000, A.D. 2023-Jun-24 00:00:00.0000, 3.077126554337861E+08, -2.511781714365329E+08, 1.136037489781663E+06,
2460126.500000000, A.D. 2023-Jul-01 00:00:00.0000, 3.132064925435364E+08, -2.420651600818270E+08, 5.212345755202919E+05,
2460133.500000000, A.D. 2023-Jul-08 00:00:00.0000, 3.184551865674787E+08, -2.327626647228707E+08, -9.397661357243359E+04,
2460140.500000000, A.D. 2023-Jul-15 00:00:00.0000, 3.234519772203029E+08, -2.232760248170867E+08, -7.091137054938525E+05,
2460147.500000000, A.D. 2023-Jul-22 00:00:00.0000, 3.281901274122762E+08, -2.136108204813255E+08, -1.323683779679507E+06,
$$EOE